[
  {
    "nameTH": "บ้านอะอึ๋ม",
    "nameEN": "A-AUM",
    "nameURL": "a-aum",
    "size": "L",
    "limit": 350,
    "city": "D",
    "place": "-",
    "facebookURL": "https://www.facebook.com/BaanAaum",
    "lineURL": "",
    "instagramURL": "",
    "twitterURL": "",
    "slogan": "อะไรเอ่ยต่อจากไดโนเสาร์? ไดโนอะอึ๋ม!",
    "description": "กว่า 24 ปีที่เรารอคอย บัดนี้อึ๋มราสสิคเวิร์ดได้เปิดเต็มรูปแบบที่เดียวในโลกได้เปิดให้บริการแล้ว! ขอต้อนรับทุกท่านเข้าสู่ \"อึ๋มราสสิคเวิลด์\" บ้านที่อัดแน่นด้วยพี่ๆตั้งแต่ยุคดึกดำบรรพ์ถึงรุ่นปัจจุบันที่พร้อมมาโลดแล่นกับทุกคนอีกครั้ง"
  },
  {
    "nameTH": "บ้านแอ๊บ",
    "nameEN": "ABnormal",
    "nameURL": "abnormal",
    "size": "S",
    "limit": 160,
    "city": "D",
    "place": "-",
    "facebookURL": "https://www.facebook.com/abnormalhouse",
    "lineURL": "",
    "instagramURL": "",
    "twitterURL": "",
    "slogan": "น้ำยังพึ่งเรือ เสือยังพึ่งป่า ถ้าอยากมีคนให้พึ่งพาก็เดินมาที่บ้านแอ๊บ #แอ๊บมองเธออยู่นะจ๊ะ",
    "description": "บ้านแอ๊บนอร์มอล (AB NORMAL HOUSE) หรือเรียกสั้น ๆ ว่า “บ้านแอ๊บ (AB)” บ้านไซส์เล็ก ที่เต็มอิ่มไปด้วย ความสนุกสนาน เฮฮา และความสัมพันธ์ ระหว่าง รุ่นพี่ รุ่นน้อง เพื่อนพ้อง ที่ทำให้บ้านหลังนี้นั้นเต็มไปด้วยความรัก ความอบอุ่น และมิตรภาพดี ๆ มากมาย และแน่นอนว่า เราพร้อมที่จะมอบต่อความรักและความอบอุ่นนี้ ให้น้องๆต่อไป"
  },
  {
    "nameTH": "บ้านเอช้วน",
    "nameEN": "Achuan",
    "nameURL": "achuan",
    "size": "M",
    "limit": 220,
    "city": "A",
    "place": "ข้างเรือนจุฬานฤมิตร",
    "facebookURL": "https://www.facebook.com/baanachuan",
    "lineURL": "",
    "instagramURL": "",
    "twitterURL": "",
    "slogan": "มังกรตระหง่าน สันทนาการพลิ้วไหว เสียงกลองดังสนั่นถึงใจ “เอช้วน” ยิ่งใหญ่ในปฐพี",
    "description": "แฉ!!! รับน้องก้าวใหม่ จบรับน้องกับ 1 ทริปก็จบกัน เอช้วนปัด “ไม่จริง! รับน้องมันแค่เริ่มต้น” ความสัมพันธ์ดีๆไม่ได้เกิดขึ้นได้แค่สามวัน แต่ถ้าอยากสัมผัสความมันส์ สามวันเอช้วนจัดให้เต็มที่ กิจกรรมดีๆอีกมากมายที่รอน้องไปร่วมมันส์หลังรับน้อง “ค่ายสอน แทงพูล ดูหนัง อิ่มจังตังอยู่ครบ” ติดตามข่าวสารได้ที่เพจ “บ้านเอช้วน” : fb.me/baanachuan/ แล้วเจอกัน!!!"
  },
  {
    "nameTH": "บ้านอากาเป้",
    "nameEN": "AGAPE",
    "nameURL": "agape",
    "size": "S",
    "limit": 160,
    "city": "B",
    "place": "-",
    "facebookURL": "https://www.facebook.com/baanagape/",
    "lineURL": "",
    "instagramURL": "https://www.instagram.com/baanagapechula/",
    "twitterURL": "",
    "slogan": "cuz love makes us become human",
    "description": "1. บ้านไซส์เล็กน่ารัก อบอุ่น ไม่หยาบคาย และอบอวลไปด้วยความรัก\n2. ขอเชิญน้องๆมาค้นหาความสนุกและความรักของเราได้ที่นี่\n3. รักมันคืออะไร มันใช่อาการอุ๋งๆรึป่าว มาค้นหาความรักของเราได้ที่อากาเป้ พี่ๆรอน้องๆอยู่นะคะ"
  },
  {
    "nameTH": "บ้านบูชายัญ",
    "nameEN": "Buchayun",
    "nameURL": "buchayun",
    "size": "M",
    "limit": 220,
    "city": "D",
    "place": "ใต้โถงอาคารรัฐศาสตร์ 60 ปี ข้างอเมซอน",
    "facebookURL": "https://www.facebook.com/BaanBuchayun/",
    "lineURL": "",
    "instagramURL": "https://www.instagram.com/baan_buchayun/",
    "twitterURL": "",
    "slogan": "Your soul is yours, but your heart is mine.",
    "description": "“บูชายัญ” หนึ่งในบ้านรับน้องเก่าแก่ของจุฬาฯ ยิ่งผ่านมาหลายสิบปีประวัติศาสตร์และ ‘ความลับ’ ของบ้านยิ่งทวีคูณมากขึ้นเรื่อยๆ และในปีนี้บ้านบูชายัญกำลังมองหาผู้กล้าที่พร้อมจะเสียสละเพื่อปกป้องดวงวิญญาณอันบริสุทธิ์ของพวกเราเอาไว้ ต่อสู้กับสิ่งชั่วร้ายเหล่านั้นไปด้วยกันใน ‘งานรับน้องก้าวใหม่’ แล้วเจอกันเหล่าผู้กล้าแห่งบูชายัญ"
  },
  {
    "nameTH": "บ้านบึ้ม",
    "nameEN": "Buem",
    "nameURL": "buem",
    "size": "M",
    "limit": 220,
    "city": "B",
    "place": "พื้นที่ระหว่างสปอร์ตคอมและสนามกีฬาในร่ม",
    "facebookURL": "https://www.facebook.com/baanbuem/",
    "lineURL": "",
    "instagramURL": "https://www.instagram.com/baan_buem/",
    "twitterURL": "",
    "slogan": "ไม่อยากนั่งซึม มาบ้านบึ้มสิจ๊ะ",
    "description": "FB: บ้านบึ้ม fb.me/baanbuem"
  },
  {
    "nameTH": "บ้านดอก",
    "nameEN": "Dork",
    "nameURL": "dork",
    "size": "S",
    "limit": 160,
    "city": "D",
    "place": "-",
    "facebookURL": "https://www.facebook.com/baandork/",
    "lineURL": "",
    "instagramURL": "",
    "twitterURL": "",
    "slogan": "ปลุกความดอกในตัวคุณ",
    "description": "ยินดีต้องรับน้องๆเข้าสู่บ้านดอก! อณาจักรดอกๆที่มีทั้งความสนุก ตื่นเต้น และเฮฮา เห็นเป็นบ้านไซส์เล็กๆแบบนี้ แต่ขอบอกว่าจิ๋วแต่แจ๋วนะ กิจกรรมแน่น จัดเต็มทุกวันแน่นอน!"
  },
  {
    "nameTH": "บ้านดุ๊ยดุ่ย",
    "nameEN": "Duidui",
    "nameURL": "duidui",
    "size": "S",
    "limit": 160,
    "city": "C",
    "place": "-",
    "facebookURL": "https://www.facebook.com/baanduidui/",
    "lineURL": "http://line.me/ti/p/~@gym7951s",
    "instagramURL": "",
    "twitterURL": "",
    "slogan": "กลับมาอีกครั้งกับพวกเรา ดุ๊ยดุ่ยสตอรี่ ที่จะพาคุณไปสู่ความเวิ้งว้างอันไกลโพ้นนนนน~",
    "description": "บ้านดุ๊ยดุ่ยมีประวัติคู่จุฬามานานกว่า20ปี ซึ่งพี่ๆบ้านได้ดูแลน้องๆอย่างเอาใจใส่และอบอุ่นมาโดยตลอด คำว่าดุ๊ยดุ่ยคือชื่อว่าวชนิดหนึ่งคล้ายว่าวจุฬา เมื่อลมเข้ามาปะทะจะเกิดเป็นเสียง duu du duu du~~ เอ้ย เกิดเป็นเสียงดุ๊ยดุ่ยต่างหาก ดังนั้นสมาชิกบ้านนี้จึงเปรียบเสมือนผู้ที่กำลังตามหาเสียงแห่งความสนุกสนานอยู่นั่นเอง แล้วมาเล่นว่าวดุ๊ยดุ่ยไปด้วยกันนะคร้าบ"
  },
  {
    "nameTH": "บ้านดัง",
    "nameEN": "Dung",
    "nameURL": "dung",
    "size": "M",
    "limit": 220,
    "city": "D",
    "place": "ลานจอดรถตรงข้ามตึกรัฐศาสตร์ 60 ปี",
    "facebookURL": "https://www.facebook.com/baandung/",
    "lineURL": "http://line.me/ti/p/~@ksa6389l",
    "instagramURL": "https://www.instagram.com/baandung.official/",
    "twitterURL": "",
    "slogan": "ข้ามป่ามาซ่ากับมา\"ดัง\"กัสการ์",
    "description": "เราชอบมาโยก มาโยก มาโยกกัน มาบ้านดัง!! 🎉 ความวุ่นวายกำลังจะกลับมาอีกครั้ง มาร่วมป่วนเมืองไปกับพวกเราชาว #มาดังกัสการ์ เตรียมพบกับคาราวานสัตว์ป่า ไม่ว่าจะเป็นสัตว์เล็ก สัตว์ใหญ่ เหล่าเฟรชชี่ #cu102 เตรียมตัวให้พร้อม อดใจรออีกสักนิด แล้วมาซ่าสุดๆไปกับพวกเรา #บ้านดัง ในงาน #รับน้องก้าวใหม่ ได้เลย! #รับน้องจุฬา61"
  },
  {
    "nameTH": "บ้านเฟี้ยว",
    "nameEN": "Fyo",
    "nameURL": "fyo",
    "size": "M",
    "limit": 220,
    "city": "C",
    "place": "ลานตัวแอล ตรงข้าม i canteen",
    "facebookURL": "https://www.facebook.com/BaanFYO/",
    "lineURL": "",
    "instagramURL": "",
    "twitterURL": "",
    "slogan": "ขนมจีนต้องคู่น้ำเงี้ยว เฟรชชี่สายเฮี้ยวต้องคู่ Master FYO Thailand",
    "description": "กลับมาอีกครั้งกับการช่วงชิงความเป็นที่สุดของงานรับน้องก้าวใหม่ Master FYO Thailand บ้านที่สนุกที่สุด อบอุ่นที่สุด และเฟี้ยวที่สุดในรั้วจุฬาฯ\nพี่บ้านเฟี้ยวพร้อมแล้ว น้อง ๆ ล่ะพร้อมหรือยังที่จะมาเป็นส่วนหนึ่งในบ้านหลังนี้ มาเลือกบ้านเฟี้ยวสิ แล้วน้องจะไม่ผิดหวัง"
  },
  {
    "nameTH": "บ้านอินเดียน่า",
    "nameEN": "INDIANA",
    "nameURL": "indiana",
    "size": "S",
    "limit": 160,
    "city": "C",
    "place": "-",
    "facebookURL": "https://www.facebook.com/BaanIndiana/",
    "lineURL": "",
    "instagramURL": "",
    "twitterURL": "",
    "slogan": "เป็นเสือดำอาจจะโดนยิง เธอน่ารักจริงๆ เอื้อ !!! โดนใจ",
    "description": "เห็นเป้าหมายเสือดำ 2 นาฬิกาฟาเรนไฮต์ อุณหภูมิ 155 เซลเซียส แรงปืน 32 อุณหภูมิความชื้น 32 นาฬิกา ปาดขวายิงเพื่อหวังผล แตก1 สวยพี่สวย ไอบ้ามันยิงไม่โดน !!!! ตบปากตัวเอง 300 ที !!! บ้านอินเดียน่าไม่ใช่สถานที่แต่เป็นผู้คน พวกพี่ไม่มีตังแต่พวกพี่มีไต รักน้องบ้านนะจ๊ะ INDIANA FOREVER !!!!"
  },
  {
    "nameTH": "บ้านอินดี้",
    "nameEN": "Indy",
    "nameURL": "indy",
    "size": "XL",
    "limit": 400,
    "city": "C",
    "place": "มหามกุฏคณะวิทยาศาสตร์",
    "facebookURL": "https://www.facebook.com/BaanIndyCU/",
    "lineURL": "http://line.me/ti/p/~@dnr5513j",
    "instagramURL": "https://www.instagram.com/baanindy.official/",
    "twitterURL": "",
    "slogan": "Let the game begins",
    "description": "ถ้าคุณเป็นสายปาร์ตี้....เราขอเสนอบ้านอินดี้\" ยินดีต้อนรับน้องๆ CU102 เตรียมตัวให้พร้อมที่จะเข้าสู่การเป็น Player ในรั้วจุฬา ถ้าพร้อมแล้ว กดสมัครบ้านอินดี้ และมาเริ่มเกมนี้ไปด้วยกันใน \"Indy Player One\" …. Remember this is not just a game."
  },
  {
    "nameTH": "บ้านจัดสัน",
    "nameEN": "Jadson",
    "nameURL": "jadson",
    "size": "M",
    "limit": 220,
    "city": "D",
    "place": "ลานจอดรถบัญชี",
    "facebookURL": "https://facebook.com/BaanJudson/",
    "lineURL": "",
    "instagramURL": "",
    "twitterURL": "",
    "slogan": "อนาคตสดใส ถ้าได้มาจัดสันกับพี่ นะจ๊ะ",
    "description": "Welcome! Challenger! ยินดีต้อนรับ เหล่าเด็กๆที่มีความฝัน เข้าสู่ปราสาทจัดสัน ไม่ว่าพวกเจ้าจะมาจากสังคมใด พื้นที่แห่งนี้จะเป็นที่ให้พวกเจ้าได้เรียนรู้และได้ปรับตัวกับเหล่ารุ่นพี่หลายๆคณะ ผ่านกิจกรรมต่างๆที่มีความสนุกสนาน เพื่อที่การผจญภัยหน้าๆอีกหลายปีของพวกเจ้านั้น จะได้ผ่านไปด้วยความราบรื่น มัวรออะไรอยู่เล่า! รีบๆเข้ามาสมัครกันเถอะ ความสนุกกำลังรอพวกเจ้าอยู่นะ!"
  },
  {
    "nameTH": "บ้านโจ๋",
    "nameEN": "Jo+",
    "nameURL": "jo",
    "size": "L",
    "limit": 350,
    "city": "A",
    "place": "-",
    "facebookURL": "https://facebook.com/baanjochula",
    "lineURL": "https://line.me/R/ti/p/%40ooz1553v",
    "instagramURL": "http://instagram.com/baanjochula",
    "twitterURL": "https://twitter.com/baanjo_chula",
    "slogan": "เมื่ออสูร JCAS ปรากฏกาย Jo+ credible จะปรากฎตัว",
    "description": "เป็นระยะกว่าทศวรรษที่เหล่า Jo+ credible ปกป้องพวกเราเหล่าจุฬาจากวายร้าย แต่ปีนี้ได้เกิดเรื่องที่ไม่คาดฝันขึ้น เมื่อซูเปอร์ฮีโร่ของพวกเราได้หายตัวไปทีละคนจะเกิดอะไรขึ้นกับพวกเขาหรือว่าเหล่าปีศาจร้ายมาจับตัวพวกเขาไปพวกเราชาวจุฬาจะต้องช่วยกันหาทางช่วยพวกเขากลับมา มาร่วมเป็นส่วนหนึ่งกับภารกิจครั้งนี้กับพวกเราบ้านโจ๋ วันที่ 4-6 สิงหาคม 2561 นี้กัน !!!"
  },
  {
    "nameTH": "บ้านโจ๊ะเด๊ะ",
    "nameEN": "Jodeh Huesa",
    "nameURL": "jodeh",
    "size": "M",
    "limit": 220,
    "city": "C",
    "place": "ตึกแถบ วิทยาศาสตร์",
    "facebookURL": "https://www.facebook.com/jodehcu/",
    "lineURL": "",
    "instagramURL": "https://www.instagram.com/jodeh_official/",
    "twitterURL": "",
    "slogan": "Great is the victory , but the friendship of all is greater.",
    "description": "อาณาจักรกำลังร้อนเป็นไฟ เมื่อ 4 เผ่าพันธุ์ต้องมาเผชิญหน้ากัน แล้วใครหล่ะที่จะเป็นผู้ได้แหวนแห่งพลังไป มาร่วมหาคำตอบได้ใน The Return Of Jodeh Huesa"
  },
  {
    "nameTH": "บ้านคุณหนู",
    "nameEN": "Khunnoo",
    "nameURL": "khunnoo",
    "size": "S",
    "limit": 160,
    "city": "D",
    "place": "-",
    "facebookURL": "https://facebook.com/BaanKhunNooCU",
    "lineURL": "",
    "instagramURL": "",
    "twitterURL": "",
    "slogan": "บ้านนี้มีเพียงหนึ่งเดียวเท่านั้น ยอดนักสืบ... คุณหนู! (เพลงมา:แดแดแดแด๊ แดแดแด แด๊แดแด)",
    "description": "‘บ้านคุณหนูของจุฬาฯ’ แค่ชื่อก็ตั๊ลล๊ากกแล้วใช่ไหมจ๊ะ ถ้าน้องกำลังมองหาบ้านรับน้องน่ารักๆ ได้เจอเพื่อนใหม่ สไตล์การรับน้องแบบใสๆ สนุกสนาน เฮฮาปาร์ตี้ มีกิจกรรมที่เปิดโอกาสให้น้องได้รู้จักเพื่อนและพี่ๆ มากมาย บอกเลยว่า ‘บ้านคุณหนู’ ตอบโจทย์น้องๆ ทุกคนแน่นอน! ด้วยขนาดบ้านไซส์ S ที่พี่จะได้เทคแคร์น้องๆ อย่างทั่วถึง ดูแลอย่างดีประดุจเป็นคุณหนู ได้กินและอยู่อย่างราชา(555) เข้ามาแล้วรับรองว่าสัมผัสได้ถึงไออุ่นของบ้านจ้า"
  },
  {
    "nameTH": "บ้านคิดส์",
    "nameEN": "Kids",
    "nameURL": "kids",
    "size": "S",
    "limit": 160,
    "city": "A",
    "place": "-",
    "facebookURL": "https://facebook.com/BaanKids/",
    "lineURL": "",
    "instagramURL": "https://instagram.com/baankids.official/",
    "twitterURL": "",
    "slogan": "Beware, Kids!!!",
    "description": "Baankids บ้านรับน้องก้าวใหม่แห่งจุฬาลงกรณ์มหาวิทยาลัย จัดเป็นหนึ่งในบ้านรับน้องที่เก่าแก่ที่สุดในจุฬาลงกรณ์มหาวิทยาลัย ก่อตั้งอย่างเป็นทางการเมื่อปี พ.ศ.2544 ภายใต้ชื่อ\"บ้านคิดส์\" ปัจจุบันบ้านคิดส์ถูกจัดให้อยู่ในบ้านขนาดเล็กหรือไซด์s ขนาดเล็กกำลังพอดี รับประกันความอบอุ่นและมิตรภาพของผองเพื่อนต่างคณะ ภายใต้ความคิดที่ว่า “บ้านคิดส์ไม่ใช่บ้านขายฝัน แต่ขายความมันส์และความเหนียวแน่นหนึบ”"
  },
  {
    "nameTH": "บ้านโคะ",
    "nameEN": "KOH",
    "nameURL": "koh",
    "size": "M",
    "limit": 220,
    "city": "C",
    "place": "ลานตัวแอล ตรงข้ามวิศวฯ (ทางโค้งที่รถปอพจอด)",
    "facebookURL": "https://facebook.com/BaanKoh/",
    "lineURL": "",
    "instagramURL": "https://instagram.com/baankohchula/",
    "twitterURL": "",
    "slogan": "Live like you're drunk",
    "description": "“ KOH DENIAL’s “ สโลแกนของเรามันคือการเมาเหล้าหรอ..เปล่าเลย คนเมาชอบพูดว่าเมาแล้วสนุก เมาแล้วลืมทุกอย่าง จะดีกว่ามั้ยถ้าเราไม่ต้องใช้เหล้าเพื่อให้เมาแล้วสนุก จึงเป็นที่มาของสโลแกนบ้าน ที่จริงๆแล้วมันคือทำทุกวันให้สนุกเหมือนชีวิตมีแต่ความเมา!! อยากรู้ว่าหน้าตาของการเมาความสนุกมันเป็นยังไง ต้องเลือกบ้านโคะ !!"
  },
  {
    "nameTH": "บ้านคุ้ม",
    "nameEN": "KOOM",
    "nameURL": "koom",
    "size": "L",
    "limit": 350,
    "city": "C",
    "place": "-",
    "facebookURL": "https://www.facebook.com/บ้านคุ้ม-127164760810245/",
    "lineURL": "",
    "instagramURL": "https://instagram.com/baankoom.chula/",
    "twitterURL": "",
    "slogan": "Koom in the Drive ยานยนตร์สะกดใจ",
    "description": "ขอเชิญเฟรชชี่ บุคลิกดี กล้าแสดงออก อายุมากกว่าปีที่แล้ว ความสูง 100 ซม.ขึ้นไป\nมาร่วมเป็นส่วนหนึ่งของศิลปะแห่งยนตรกรรมที่ยิ่งใหญ่ที่สุด แรงที่สุด คุ้มที่สุดในจุฬาลงกรณ์\nคุ้มมอเตอร์โชว์รอคุณอยู่ แล้วคุณล่ะพร้อมมาเป็นชาวคุ้มแล้วหรือยัง\n“บ้านไหนที่ใครว่าเยี่ยม ก็ไม่อาจเทียบเทียมบ้านคุ้มจุฬา”"
  },
  {
    "nameTH": "บ้านหลายใจ",
    "nameEN": "LaiJai",
    "nameURL": "laijai",
    "size": "M",
    "limit": 220,
    "city": "A",
    "place": "ลานหินโอเค",
    "facebookURL": "https://facebook.com/BaanLaiJai/",
    "lineURL": "",
    "instagramURL": "https://www.instagram.com/baanlaijai",
    "twitterURL": "ิ",
    "slogan": "หลายใจโอเอซิส ฟื้นพลังชีวิตให้น้องๆ TCAS",
    "description": "น้องๆ Freshy คงเดินทางผ่านทะเลทรายแห้งแล้งที่ชื่อ TCAS อย่างยากลำบาก\nจงทำใจให้สบาย แล้วมาอยู่ใต้ร่มเงาโอเอซิสหลายใจกัน"
  },
  {
    "nameTH": "บ้านหมีน้อย",
    "nameEN": "Mheenoi",
    "nameURL": "mheenoi",
    "size": "S",
    "limit": 160,
    "city": "D",
    "place": "-",
    "facebookURL": "https://facebook.com/Baanmheenoi/",
    "lineURL": "",
    "instagramURL": "https://www.instagram.com/baanmheenoi",
    "twitterURL": "",
    "slogan": "ถ้าหมีความเหงามาจอยกับเราที่บ้านหมี",
    "description": "ไซส์เล็กแสนอบอุ่น ถ้าคุณไม่เชื่อเรา ก็ลองเข้ามาสัมผัสด้วยตัวเองสิ"
  },
  {
    "nameTH": "บ้านไหน",
    "nameEN": "Nhai",
    "nameURL": "nhai",
    "size": "M",
    "limit": 220,
    "city": "C",
    "place": "ลานจักรพงษ์",
    "facebookURL": "https://www.facebook.com/Baannhai/",
    "lineURL": "",
    "instagramURL": "",
    "twitterURL": "https://twitter.com/BaanNhai?lang=en",
    "slogan": "บ้านไหนไม่ใช่คำถาม แต่เป็นคำตอบ",
    "description": "“บ้านไหน” นั้นนับเป็นบ้านรับน้องของจุฬาฯ ที่มีประวัติมายาวนานมาก\nโดยผ่านการเปลี่ยนชื่อมาแล้วไม่ว่าจะเป็น “บ้านมดเขียวเสียวจ๊าบ” \n“บ้านนอก” หรือ “บ้านเธอสิ” แต่แล้วในที่สุด ในปี 2544 เราก็ได้ชื่อ \n“บ้านไหน” มานั่นเอง แต่ไม่ว่าจะเป็นชื่อไหนเราก็ยังคงเป็นบ้านที่มีความ \n“งง มึน อึน” เป็นเอกลักษณ์เสมอมา ดังนั้นไม่ว่าน้องๆ \nจะเป็นใครมาจากไหนก็แล้วแต่ พี่ขอเชิญชวนน้องๆ \nมาร่วมประสบการณ์สุดสนุกได้ ที่นี่ “บ้านไหน”"
  },
  {
    "nameTH": "บ้านพักตากอากาศ",
    "nameEN": "Pak-Tak-Agard",
    "nameURL": "pak-tak-agard",
    "size": "S",
    "limit": 160,
    "city": "D",
    "place": "-",
    "facebookURL": "https://www.facebook.com/baanpakcu/",
    "lineURL": "",
    "instagramURL": "https://www.instagram.com/banpak.chula/",
    "twitterURL": "",
    "slogan": "แล้วทะเลจะนำพาให้เรามาเจอกัน",
    "description": "Serendipity ตามความหมายเดิมแปลว่าการมีโชคในการค้นพบสิ่งต้องการโดยบังเอิญ เราเอามาดัดแปลงเป็น Searendipity เพื่อให้คล้องกับสโลแกนบ้านคือ “แล้วทะเลจะนำพาให้เรามาเจอกัน” โดยธีมหลักเป็นการไปพักตากอากาศที่ทะเล เหมือนเป็นพรหมลิขิตที่ให้เราได้มาเจอกัน ทำกิจกรรมร่วมกัน ให้ทุกอย่างเป็นไปเรื่อยๆ ปล่อยไปตามพรหมลิขิต แม้ว่าผลจะเป็นยังไง สิ่งสำคัญที่สุดก็คือ อย่างน้อยพวกเราทุกคนก็ได้มาพบเจอกัน"
  },
  {
    "nameTH": "บ้านผี",
    "nameEN": "Phee",
    "nameURL": "phee",
    "size": "S",
    "limit": 160,
    "city": "D",
    "place": "-",
    "facebookURL": "https://www.facebook.com/BaanPheeCU",
    "lineURL": "",
    "instagramURL": "",
    "twitterURL": "",
    "slogan": "ผีบ่าวๆ หน่องซ่าวส้วยหม่าย",
    "description": "“เรามีพี่น้อง เรามีเพื่อนบ้าน เรามีตำนาน เราคือบ้านผี เหนื่อยต้องพัก อยากได้ความรักเลือกบ้านผี เพราะบ้านผีจะดูแลคุณอย่างดม เฮ้ย! บ้านผมจะดูแลคุณอย่างดี มาร่วมสัมผัสประสบการณ์แปลกใหม่ในวงการบ้านรับน้องได้แล้ววันนี้ ตำนานต้องมีการสานต่อ บ้านผีรอคุณอยู่”"
  },
  {
    "nameTH": "บ้านพ่อ",
    "nameEN": "Por",
    "nameURL": "por",
    "size": "L",
    "limit": 350,
    "city": "B",
    "place": "-",
    "facebookURL": "https://www.facebook.com/baanpor/",
    "lineURL": "",
    "instagramURL": "https://www.instagram.com/baanpor.official/",
    "twitterURL": "",
    "slogan": "“Show Me The Daddy” - Let lose your mind and go fucking crazy.",
    "description": "“บ้านพ่ออาจจะเป็นครอบครัวที่อบอุ่นที่สุด ในรั้วจามจุรีแห่งนี้” คำพูดจากพี่ๆบ้านพ่อที่ร่วมกันสร้างครอบครัวที่อบอุ่นนี้มาตลอด 18 ปีที่ผ่านมา ตลอด 3 วันที่น้องๆจะได้รับความสนุกสนาน ความอบอุ่น และ ประสบการณ์ดีๆ ที่พี่ๆเชื่อว่าน้องๆไม่สามารถหาได้จากที่อื่น นอกเหนือจากนั้น ครอบครัวนี้จะยังคงความสนุกสนาน ความอบอุ่น และประสบการณ์ดีๆ ให้น้องๆ ต่อไปแม้ว่าจะจบการรับน้องก้าวใหม่แล้ว"
  },
  {
    "nameTH": "บ้านเปรี้ยว",
    "nameEN": "Preaw",
    "nameURL": "preaw",
    "size": "M",
    "limit": 220,
    "city": "B",
    "place": "ลานก้าวปริญญ์ หน้าจาม 9",
    "facebookURL": "https://www.facebook.com/BaanPreawCu/",
    "lineURL": "",
    "instagramURL": "https://www.instagram.com/baanpreaw.official/",
    "twitterURL": "",
    "slogan": "We take you back to the best century of the humanity",
    "description": "บ้านเปรี้ยวปีนี้พร้อมพาทุกคนเดินทางกลับไปสู่ยุคที่คูลที่สุด มันส์ที่สุด เจ๋งที่สุดของมวลมนุษยชาติมาเต็มอิ่มทั้งสามวันด้วยกิจกรรมซ่าๆจากพี่บ้านแซ่บๆ อย่ารอช้า เพราะตอนนี้ได้เวลาไปยุค90s!!"
  },
  {
    "nameTH": "บ้านแรง",
    "nameEN": "Rang",
    "nameURL": "rang",
    "size": "XL",
    "limit": 400,
    "city": "A",
    "place": "โถงอาคารมิ่งขวัญการศึกษาไทย",
    "facebookURL": "https://www.facebook.com/baanrang",
    "lineURL": "",
    "instagramURL": "https://www.instagram.com/baanrang.official/",
    "twitterURL": "",
    "slogan": "Once upon a RANG",
    "description": "ทำไมปราสาท Disney ถึงได้เปื้อนเลือด? ดินแดนแห่งความฝันของน้องๆจะไม่เหมือนเดิมอีกต่อไป มาร่วมสัมผัสความ RANG ด้วยกันที่นี่"
  },
  {
    "nameTH": "บ้านหรอย",
    "nameEN": "Rhoy",
    "nameURL": "rhoy",
    "size": "S",
    "limit": 160,
    "city": "B",
    "place": "-",
    "facebookURL": "https://www.facebook.com/BaanRhoy/",
    "lineURL": "",
    "instagramURL": "",
    "twitterURL": "",
    "slogan": "ง่วงไหมเด็กดี หนุกตักพี่ Free Wi-Fi but No Password",
    "description": "“ชีวิตมหาลัยมันเหนื่อย!” ทำไมโลกนี้มันแสนจะวุ่นวาย? ช้าก่อนเด็กน้อย..อย่าพึ่งเชื่อเสียงลือเสียงเล่าอ้างอันใด\nน้องๆจุฬา102อย่าพึ่งหวั่นใจ จับมือพี่ไว้แล้วไปด้วยกัน หากเธอเหนื่อยกายให้พี่ปลอบ หากเธอเหนื่อยใจให้พี่กล่อม\nมาเติมพลัง จุดประกายความสดใสสไตล์เฟรชชี่ เริ่มก้าวแรกอย่างแฮปปี้ดุจฝันดียามนิทราไปกับ ‘บ้านหรอย’\nภายใต้คอนเซ็ป PAJAMAS PARTY ! BE READY, WE’VE GOT SOME WILDEST DREAM FOR YOU :)"
  },
  {
    "nameTH": "บ้านเสี่ยว",
    "nameEN": "Seiyw",
    "nameURL": "seiyw",
    "size": "S",
    "limit": 160,
    "city": "A",
    "place": "-",
    "facebookURL": "https://www.facebook.com/BaanSeiyw",
    "lineURL": "",
    "instagramURL": "https://www.instagram.com/baanseiyw.official",
    "twitterURL": "",
    "slogan": "ถึงชื่อบ้านจะเสี่ยว แต่น้องจะไม่โดดเดี่ยวแน่นอน",
    "description": "บ้านเสี่ยวเป็นบ้านขนาดเล็ก ซึ่งข้อดีของบ้านขนาดเล็กคือทำให้น้องๆภายในบ้านสามารถที่จะพูดคุยและรู้จักกันได้อย่างทั่วถึง เหมือนอย่างพี่ๆทุกคน และพี่ๆทุกคนในบ้านพร้อมที่จะให้คำปรึกษา พูดคุยกับน้องๆเสมอ"
  },
  {
    "nameTH": "บ้านสด",
    "nameEN": "Sod",
    "nameURL": "sod",
    "size": "M",
    "limit": 220,
    "city": "A",
    "place": "โถงอาคารจามจุรี5",
    "facebookURL": "https://www.facebook.com/baansodcu/",
    "lineURL": "https://line.me/R/ti/p/%40ajr0494u",
    "instagramURL": "https://www.instagram.com/baan_sod",
    "twitterURL": "",
    "slogan": "มาบ้านสดอาจไม่โสดกลับไป",
    "description": "บ้านเราปีนี้มาในธีมของ จู! ราส! สด! เวิล์ด!!!!!!! เย้เย้เย้เย้ สำหรับน้องๆที่ยัง งงๆ พี่บอกได้เลยว่า น้องต้องมาหาคำตอบที่บ้านสดเอาเองงงงงงง นอกจากนี้บ้านเรายังมีสโลแกนว่า #มาบ้านสดอาจจะไม่โสดกลับไป อ๋าาาา อยากรู้ว่ามีกี่คู่ที่สมหวังกันไป ก็ต้องลองมาร่วมเป็นส่วนหนึ่งในบ้านสดปีนี้ดูววววววว อาจจะไม่โสดกลับไปเด้อออออ มาทำให้ปิดเทอมนี้มีสีสันกันที่บ้านสดนะจ๊ะ มาสนุกกันเถอะน้องๆที่น่ารักทั้งหลาย!!"
  },
  {
    "nameTH": "บ้านโซ้ยตี๋หลีหมวย",
    "nameEN": "SoeiteeLheemouy",
    "nameURL": "soeitee",
    "size": "L",
    "limit": 350,
    "city": "B",
    "place": "-",
    "facebookURL": "https://www.facebook.com/baansoeiteelheemouy/",
    "lineURL": "http://line.me/ti/p/~@rkh2101e",
    "instagramURL": "https://www.instagram.com/baansoeiteelheemouy/",
    "twitterURL": "https://twitter.com/baansoeitee",
    "slogan": "ถึงบ้านจะชื่อ “โซ้ยตี๋” แต่ “โซ้ยพี่\" ก็ดีน้าาา",
    "description": "บ้านโซ้ยตี๋หลีหมวยเป็นบ้านรับน้องไซส์ L ที่อาหมวยน่าหลี อาตี๋น่าโซ้ย แต่เหนือสิ่งอื่นใดพี่ ๆ น่าโซ้ยที่สุด (ว้าว!) บ้านเราเน้นความสนุกสนาน เฮฮา เป็นกันเอง และถึงบ้านเราจะเป็นบ้านไซส์ใหญ่แต่ก็การันตีความอบอุ่นนะจ๊ะ นอกจากนี้ กิจกรรมของพวกเราไม่ได้มีแค่ช่วงวันรับน้อง 3 วันเท่านั้น แต่ยังมีกิจกรรมร่วมกันไปตลอดปี ไม่ว่าจะเป็นกินข้าว บอร์ดเกม หรือทริปบ้าน รับรองมีมาไม่ขาดแน่นอน มาจอยกันได้น้า"
  },
  {
    "nameTH": "บ้านเต็ม",
    "nameEN": "TEM",
    "nameURL": "tem",
    "size": "S",
    "limit": 160,
    "city": "D",
    "place": "-",
    "facebookURL": "https://www.facebook.com/BaanTemFullHouse/",
    "lineURL": "",
    "instagramURL": "https://www.instagram.com/baantem/",
    "twitterURL": "",
    "slogan": "บ้านเต็มคนไม่เต็ม",
    "description": "กระตุ้น ต่อมสัน\nกระตุก ต่อมความสัมพันธ์\nกระชาก ต่อมแห่งความสุข\nเรียนเชิญทางนี้ TEM SCHOOL บ้านที่สามารถมอบสิ่งเหล่านั้นให้แก่คุณได้"
  },
  {
    "nameTH": "บ้านหวัง",
    "nameEN": "Wang",
    "nameURL": "wang",
    "size": "M",
    "limit": 220,
    "city": "C",
    "place": "โถงวิจัยและตรวจสอบอัญมณี (โถงเลข3) วิทยาศาสตร์",
    "facebookURL": "https://www.facebook.com/BaanWangChula",
    "lineURL": "",
    "instagramURL": "https://www.instagram.com/baanwang_",
    "twitterURL": "",
    "slogan": "หวังเท่าอวกาศ",
    "description": "ยินดีต้อนรับเหล่านักเดินทางรุ่น 102 ทุกคน ขณะนี้ ทุกท่านกำลังอยู่ในยาน WANG -017 ขอความกรุณาคาดเข็มขัดนิรภัยให้เรียบร้อย เพราะอีกไม่กี่วินาทีต่อจากนี้ ยานของเราจะพุ่งทะยานออกจากดาวโลก เพื่อนำทุกท่านสู่ห้วงอวกาศอันแสนกว้างใหญ่ ขอรับรองว่า ตลอดการเดินทาง ผู้โดยสารทุกท่านจะได้พบกับความสนุก ตื่นเต้น เร้าใจ และประสบการณ์แปลกใหม่ที่หาไม่ได้จากโลกใบเดิม ！"
  },
  {
    "nameTH": "บ้านว้อนท์",
    "nameEN": "Wanted",
    "nameURL": "wanted",
    "size": "M",
    "limit": 220,
    "city": "B",
    "place": "ลานข้างสนามจุ๊บฝั่งเครื่องออกกำลังกาย",
    "facebookURL": "https://www.facebook.com/BaanWanted/",
    "lineURL": "",
    "instagramURL": "",
    "twitterURL": "",
    "slogan": "รวมพลคนว้อนท์ Let's do what we wanted to do",
    "description": "บ้านว้อนท์จุฬาฯ ที่นี่เรามาทุกคนรวมใจ ไม่ว่าใครเฟรชชี่สดใสบ้านว้อนท์จุฬาฯ \nมาเริ่มต้นชีวิตเฟรชชี่แบบไม่เหมือนใครได้ที่นี่ เริ่มต้นอย่างสดใสไปด้วยกันกับกิจกรรมในบ้าน และภารกิจสุดท้าทาย รวมไปถึงทริปบ้านแสนหรรษา แล้วมาจอยกันนน!! ที่บ้านว้อนท์"
  },
  {
    "nameTH": "บ้านเวิร์ค",
    "nameEN": "Work",
    "nameURL": "work",
    "size": "S",
    "limit": 160,
    "city": "C",
    "place": "-",
    "facebookURL": "https://www.facebook.com/BanWorkAtCu/",
    "lineURL": "",
    "instagramURL": "https://www.instagram.com/baanwork.cu/",
    "twitterURL": "",
    "slogan": "บ้านไซส์ S จะเผ็ชสักแค่ไหน",
    "description": "“เมื่อกษัตริย์คนเก่าสิ้นชีพ แต่ Workanda ยังคงต้องอยู่ต่อไป อุดมการณ์เปิดประเทศจะสำเร็จหรือไม่ ใครกันจะช่วยนำความสุขกลับมาอีกครั้ง”"
  },
  {
    "nameTH": "บ้านยิ้ม",
    "nameEN": "Yim",
    "nameURL": "yim",
    "size": "XL",
    "limit": 400,
    "city": "B",
    "place": "โถงมหิตลาธิเบศ",
    "facebookURL": "https://www.facebook.com/baanyimchula/",
    "lineURL": "http://line.me/ti/p/~@ndo2032s",
    "instagramURL": "https://www.instagram.com/baanyimchula/",
    "twitterURL": "",
    "slogan": "Explore & Smile",
    "description": "ยินดีต้อนรับน้องๆ cu 102 เข้าสู่รั้วจุฬานะครับ พี่ๆอยากจะขอเชิญชวนน้องๆทุกคนมาเป็นส่วนหนึ่งของ 'บ้านยิ้ม' ซึ่งปีนี้มาในธีม ‘Chulassic Park’ พี่ๆบ้านยิ้มทุกคนพร้อมที่จะเปิดparkที่แสนอบอุ่นและสนุกสนานให้กับน้องๆ เฟรชชี่ทุกคนเข้ามาสำรวจและทำกิจกรรมกับเพื่อนใหม่ๆ ในรั้วจุฬากันนะครับ เพราะฉะนั้น!! มีเพื่อนชวนเพื่อน มีแฟนชวนแฟน อย่าลืมนะครับ!! ติดจุฬามาบ้านยิ้ม พี่ๆรอมอบรอยยิ้มให้กับน้องๆทุกคนอยู่นะครับ"
  }
]